{"type": "FeatureCollection", "features": [ {"type": "Feature", "properties": {"norad_id": 66390, "name": "STARLINK-35665", "group": "last-30-days", "lat": 50.46307899156493, "lon": -15.400513258225123, "alt_km": 410.8926953625769, "timestamp": "2025-12-09T11:33:53.573817+00:00", "meta": {"OBJECT_NAME": "STARLINK-35665", "OBJECT_ID": "2025-257L", "EPOCH": "2025-12-09T03:30:13.836672", "MEAN_MOTION": 15.49328138, "ECCENTRICITY": 0.0001345, "INCLINATION": 53.1588, "RA_OF_ASC_NODE": 280.9304, "ARG_OF_PERICENTER": 68.4368, "MEAN_ANOMALY": 291.6785, "EPHEMERIS_TYPE": 0, "CLASSIFICATION_TYPE": "U", "NORAD_CAT_ID": 66390, "ELEMENT_SET_NO": 999, "REV_AT_EPOCH": 592, "BSTAR": 0.00097328, "MEAN_MOTION_DOT": 0.00054094, "MEAN_MOTION_DDOT": 0}, "tle": {"line1": "1 66390U 25257L   25343.14599348  .00054094  00000+0  97328-3 0  9998", "line2": "2 66390  53.1588 280.9304 0001345  68.4368 291.6785 15.49328138  5928"}}, "geometry": {"type": "Point", "coordinates": [-15.400513258225123, 50.46307899156493]}}, {"type": "Feature", "properties": {"norad_id": 66391, "name": "STARLINK-35656", "group": "last-30-days", "lat": -33.2722540162718, "lon": 129.2038734729132, "alt_km": 451.58300774840427, "timestamp": "2025-12-09T11:33:53.573829+00:00", "meta": {"OBJECT_NAME": "STARLINK-35656", "OBJECT_ID": "2025-257M", "EPOCH": "2025-12-09T02:48:35.648064", "MEAN_MOTION": 15.39625568, "ECCENTRICITY": 0.0001147, "INCLINATION": 53.1595, "RA_OF_ASC_NODE": 281.4538, "ARG_OF_PERICENTER": 91.2559, "MEAN_ANOMALY": 268.8577, "EPHEMERIS_TYPE": 0, "CLASSIFICATION_TYPE": "U", "NORAD_CAT_ID": 66391, "ELEMENT_SET_NO": 999, "REV_AT_EPOCH": 591, "BSTAR": 0.0020518, "MEAN_MOTION_DOT": 0.0008258, "MEAN_MOTION_DDOT": 0}, "tle": {"line1": "1 66391U 25257M   25343.11707926  .00082580  00000+0  20518-2 0  9996", "line2": "2 66391  53.1595 281.4538 0001147  91.2559 268.8577 15.39625568  5918"}}, "geometry": {"type": "Point", "coordinates": [129.2038734729132, -33.2722540162718]}}, {"type": "Feature", "properties": {"norad_id": 66392, "name": "STARLINK-35671", "group": "last-30-days", "lat": -15.418260498185903, "lon": 111.7280796499065, "alt_km": 449.9752155774122, "timestamp": "2025-12-09T11:33:53.573840+00:00", "meta": {"OBJECT_NAME": "STARLINK-35671", "OBJECT_ID": "2025-257N", "EPOCH": "2025-12-09T02:54:48.330144", "MEAN_MOTION": 15.39651087, "ECCENTRICITY": 0.0001062, "INCLINATION": 53.1605, "RA_OF_ASC_NODE": 281.4947, "ARG_OF_PERICENTER": 84.7676, "MEAN_ANOMALY": 275.345, "EPHEMERIS_TYPE": 0, "CLASSIFICATION_TYPE": "U", "NORAD_CAT_ID": 66392, "ELEMENT_SET_NO": 999, "REV_AT_EPOCH": 581, "BSTAR": 0.001358, "MEAN_MOTION_DOT": 0.00054362, "MEAN_MOTION_DDOT": 0}, "tle": {"line1": "1 66392U 25257N   25343.12139271  .00054362  00000+0  13580-2 0  9998", "line2": "2 66392  53.1605 281.4947 0001062  84.7676 275.3450 15.39651087  5815"}}, "geometry": {"type": "Point", "coordinates": [111.7280796499065, -15.418260498185903]}}, {"type": "Feature", "properties": {"norad_id": 66393, "name": "STARLINK-35652", "group": "last-30-days", "lat": -48.30200440943506, "lon": 157.00231876062247, "alt_km": 452.85344966154025, "timestamp": "2025-12-09T11:33:53.573851+00:00", "meta": {"OBJECT_NAME": "STARLINK-35652", "OBJECT_ID": "2025-257P", "EPOCH": "2025-12-09T04:00:01.998720", "MEAN_MOTION": 15.39571195, "ECCENTRICITY": 0.0001292, "INCLINATION": 53.1588, "RA_OF_ASC_NODE": 281.1827, "ARG_OF_PERICENTER": 68.5659, "MEAN_ANOMALY": 232.46, "EPHEMERIS_TYPE": 0, "CLASSIFICATION_TYPE": "U", "NORAD_CAT_ID": 66393, "ELEMENT_SET_NO": 999, "REV_AT_EPOCH": 592, "BSTAR": 0.0012703, "MEAN_MOTION_DOT": 0.00050669, "MEAN_MOTION_DDOT": 0}, "tle": {"line1": "1 66393U 25257P   25343.16668980  .00050669  00000+0  12703-2 0  9999", "line2": "2 66393  53.1588 281.1827 0001292  68.5659 232.4600 15.39571195  5920"}}, "geometry": {"type": "Point", "coordinates": [157.00231876062247, -48.30200440943506]}}, {"type": "Feature", "properties": {"norad_id": 66394, "name": "STARLINK-35672", "group": "last-30-days", "lat": -49.098091267902255, "lon": 159.6259887729811, "alt_km": 452.4760471373247, "timestamp": "2025-12-09T11:33:53.573862+00:00", "meta": {"OBJECT_NAME": "STARLINK-35672", "OBJECT_ID": "2025-257Q", "EPOCH": "2025-12-09T02:41:25.903968", "MEAN_MOTION": 15.39631651, "ECCENTRICITY": 0.0001238, "INCLINATION": 53.1593, "RA_OF_ASC_NODE": 281.4337, "ARG_OF_PERICENTER": 83.799, "MEAN_ANOMALY": 276.3156, "EPHEMERIS_TYPE": 0, "CLASSIFICATION_TYPE": "U", "NORAD_CAT_ID": 66394, "ELEMENT_SET_NO": 999, "REV_AT_EPOCH": 581, "BSTAR": 0.0028493, "MEAN_MOTION_DOT": 0.00115352, "MEAN_MOTION_DDOT": 0}, "tle": {"line1": "1 66394U 25257Q   25343.11210537  .00115352  00000+0  28493-2 0  9990", "line2": "2 66394  53.1593 281.4337 0001238  83.7990 276.3156 15.39631651  5818"}}, "geometry": {"type": "Point", "coordinates": [159.6259887729811, -49.098091267902255]}}, {"type": "Feature", "properties": {"norad_id": 66395, "name": "STARLINK-35681", "group": "last-30-days", "lat": -52.88889846145795, "lon": -162.62785526173468, "alt_km": 452.822008693347, "timestamp": "2025-12-09T11:33:53.573875+00:00", "meta": {"OBJECT_NAME": "STARLINK-35681", "OBJECT_ID": "2025-257R", "EPOCH": "2025-12-09T04:00:01.998720", "MEAN_MOTION": 15.39577344, "ECCENTRICITY": 0.0001081, "INCLINATION": 53.1595, "RA_OF_ASC_NODE": 281.1313, "ARG_OF_PERICENTER": 88.0541, "MEAN_ANOMALY": 238.7266, "EPHEMERIS_TYPE": 0, "CLASSIFICATION_TYPE": "U", "NORAD_CAT_ID": 66395, "ELEMENT_SET_NO": 999, "REV_AT_EPOCH": 576, "BSTAR": 0.0011844, "MEAN_MOTION_DOT": 0.00047203, "MEAN_MOTION_DDOT": 0}, "tle": {"line1": "1 66395U 25257R   25343.16668980  .00047203  00000+0  11844-2 0  9996", "line2": "2 66395  53.1595 281.1313 0001081  88.0541 238.7266 15.39577344  5764"}}, "geometry": {"type": "Point", "coordinates": [-162.62785526173468, -52.88889846145795]}}, {"type": "Feature", "properties": {"norad_id": 66396, "name": "STARLINK-35669", "group": "last-30-days", "lat": -52.653715391082564, "lon": -159.62824006651903, "alt_km": 452.869801099534, "timestamp": "2025-12-09T11:33:53.573887+00:00", "meta": {"OBJECT_NAME": "STARLINK-35669", "OBJECT_ID": "2025-257S", "EPOCH": "2025-12-09T04:00:01.998720", "MEAN_MOTION": 15.39575286, "ECCENTRICITY": 0.0001179, "INCLINATION": 53.1595, "RA_OF_ASC_NODE": 281.1267, "ARG_OF_PERICENTER": 82.1358, "MEAN_ANOMALY": 246.485, "EPHEMERIS_TYPE": 0, "CLASSIFICATION_TYPE": "U", "NORAD_CAT_ID": 66396, "ELEMENT_SET_NO": 999, "REV_AT_EPOCH": 592, "BSTAR": 0.0011971, "MEAN_MOTION_DOT": 0.00047714, "MEAN_MOTION_DDOT": 0}, "tle": {"line1": "1 66396U 25257S   25343.16668980  .00047714  00000+0  11971-2 0  9995", "line2": "2 66396  53.1595 281.1267 0001179  82.1358 246.4850 15.39575286  5928"}}, "geometry": {"type": "Point", "coordinates": [-159.62824006651903, -52.653715391082564]}}, {"type": "Feature", "properties": {"norad_id": 66397, "name": "STARLINK-35510", "group": "last-30-days", "lat": -43.67623513013177, "lon": -126.11877226556402, "alt_km": 452.54782445465935, "timestamp": "2025-12-09T11:33:53.573897+00:00", "meta": {"OBJECT_NAME": "STARLINK-35510", "OBJECT_ID": "2025-257T", "EPOCH": "2025-12-09T04:00:01.998720", "MEAN_MOTION": 15.395813, "ECCENTRICITY": 0.0001506, "INCLINATION": 53.16, "RA_OF_ASC_NODE": 281.0796, "ARG_OF_PERICENTER": 79.1206, "MEAN_ANOMALY": 273.3863, "EPHEMERIS_TYPE": 0, "CLASSIFICATION_TYPE": "U", "NORAD_CAT_ID": 66397, "ELEMENT_SET_NO": 999, "REV_AT_EPOCH": 592, "BSTAR": 0.0015036, "MEAN_MOTION_DOT": 0.00060144, "MEAN_MOTION_DDOT": 0}, "tle": {"line1": "1 66397U 25257T   25343.16668980  .00060144  00000+0  15036-2 0  9994", "line2": "2 66397  53.1600 281.0796 0001506  79.1206 273.3863 15.39581300  5921"}}, "geometry": {"type": "Point", "coordinates": [-126.11877226556402, -43.67623513013177]}}, {"type": "Feature", "properties": {"norad_id": 66398, "name": "STARLINK-35642", "group": "last-30-days", "lat": -26.545582851453393, "lon": -102.45412254442923, "alt_km": 451.61887543345256, "timestamp": "2025-12-09T11:33:53.573908+00:00", "meta": {"OBJECT_NAME": "STARLINK-35642", "OBJECT_ID": "2025-257U", "EPOCH": "2025-12-09T04:00:01.998720", "MEAN_MOTION": 15.39581838, "ECCENTRICITY": 0.0001612, "INCLINATION": 53.1597, "RA_OF_ASC_NODE": 281.0275, "ARG_OF_PERICENTER": 99.7878, "MEAN_ANOMALY": 278.4669, "EPHEMERIS_TYPE": 0, "CLASSIFICATION_TYPE": "U", "NORAD_CAT_ID": 66398, "ELEMENT_SET_NO": 999, "REV_AT_EPOCH": 592, "BSTAR": 0.0013304, "MEAN_MOTION_DOT": 0.00053121, "MEAN_MOTION_DDOT": 0}, "tle": {"line1": "1 66398U 25257U   25343.16668980  .00053121  00000+0  13304-2 0  9998", "line2": "2 66398  53.1597 281.0275 0001612  99.7878 278.4669 15.39581838  5926"}}, "geometry": {"type": "Point", "coordinates": [-102.45412254442923, -26.545582851453393]}}, {"type": "Feature", "properties": {"norad_id": 66399, "name": "STARLINK-35657", "group": "last-30-days", "lat": -42.63158416881699, "lon": -124.05366417682544, "alt_km": 452.45434517582, "timestamp": "2025-12-09T11:33:53.573918+00:00", "meta": {"OBJECT_NAME": "STARLINK-35657", "OBJECT_ID": "2025-257V", "EPOCH": "2025-12-09T04:00:01.998720", "MEAN_MOTION": 15.39578338, "ECCENTRICITY": 0.0001287, "INCLINATION": 53.1598, "RA_OF_ASC_NODE": 281.0752, "ARG_OF_PERICENTER": 85.281, "MEAN_ANOMALY": 269.0676, "EPHEMERIS_TYPE": 0, "CLASSIFICATION_TYPE": "U", "NORAD_CAT_ID": 66399, "ELEMENT_SET_NO": 999, "REV_AT_EPOCH": 592, "BSTAR": 0.0013539, "MEAN_MOTION_DOT": 0.00054065, "MEAN_MOTION_DDOT": 0}, "tle": {"line1": "1 66399U 25257V   25343.16668980  .00054065  00000+0  13539-2 0  9997", "line2": "2 66399  53.1598 281.0752 0001287  85.2810 269.0676 15.39578338  5927"}}, "geometry": {"type": "Point", "coordinates": [-124.05366417682544, -42.63158416881699]}}]}